OBJECT_NAME,OBJECT_ID,EPOCH,MEAN_MOTION,ECCENTRICITY,INCLINATION,RA_OF_ASC_NODE,ARG_OF_PERICENTER,MEAN_ANOMALY,EPHEMERIS_TYPE,CLASSIFICATION_TYPE,NORAD_CAT_ID,ELEMENT_SET_NO,REV_AT_EPOCH,BSTAR,MEAN_MOTION_DOT,MEAN_MOTION_DDOT
ELEKTRO-L 2,2015-074A,2026-06-12T23:23:49.807392,1.00270779,.00007363,6.6819,70.5757,255.3930,271.7863,0,U,41105,999,3846,0,-.109E-5,0
COSMOS 2513,2015-075A,2026-06-13T10:06:46.767168,1.00271348,.0003255,0.0796,100.5492,331.7026,61.4361,0,U,41121,999,3851,0,-.126E-5,0
EXPRESS-AMU1,2015-082A,2026-06-13T20:10:04.219968,1.00272230,.0002645,0.0150,44.3715,39.7076,156.6766,0,U,41191,999,3823,0,.166E-5,0
GAOFEN-4,2015-083A,2026-06-13T20:51:07.731072,1.00270524,.0004338,0.3474,83.8624,114.2055,122.6039,0,U,41194,999,3849,0,-.325E-5,0
BELINTERSAT-1,2016-001A,2026-06-13T19:51:37.029888,1.00268410,.0002417,0.0460,255.3761,150.8145,205.3199,0,U,41238,999,3820,0,.118E-5,0
IRNSS-1E,2016-003A,2026-06-12T15:26:18.985920,1.00267194,.00179637,33.2248,59.8162,179.0965,5.2620,0,U,41241,999,3803,0,-.313E-5,0
EUTELSAT 9B,2016-005A,2026-06-13T20:02:19.963392,1.00270306,.0001706,0.0725,74.4866,328.2521,168.9625,0,U,41310,999,3808,0,.71E-6,0
SES-9,2016-013A,2026-06-13T20:54:18.562752,1.00269376,.0001996,0.0107,338.3404,107.7175,237.9960,0,U,41380,999,3740,0,-.335E-5,0
EUTELSAT 65 WEST A,2016-014A,2026-06-13T19:41:10.870080,1.00270049,.0002003,0.0551,21.5714,51.3953,59.2695,0,U,41382,999,3749,0,-.266E-5,0
IRNSS-1F,2016-015A,2026-06-13T20:09:04.317120,1.00265702,.0017468,5.3407,96.8554,185.4606,314.6227,0,U,41384,999,3763,0,.164E-5,0
BEIDOU-2 IGSO-6,2016-021A,2026-06-13T00:17:42.034848,1.00259939,.00570771,60.2196,38.0819,231.5209,89.2880,0,U,41434,999,3743,0,-.156E-5,0
IRNSS-1G,2016-027A,2026-06-13T18:54:04.737312,1.00267757,.0007539,5.1897,97.5513,354.2813,223.3232,0,U,41469,999,3714,0,-.328E-5,0
JCSAT-2B,2016-028A,2026-06-13T17:18:23.770944,1.00270888,.0000718,0.0167,339.7911,114.6039,221.2405,0,U,41471,999,3709,0,-.155E-5,0
THAICOM 8,2016-031A,2026-06-13T20:17:46.063392,1.00269603,.0003442,0.0778,52.7856,6.0726,226.2501,0,U,41552,999,3668,0,-.111E-5,0
INTELSAT 31 (IS-31),2016-035A,2026-06-13T14:24:45.037728,1.00272356,.0001168,0.0183,270.8261,333.8056,138.4244,0,U,41581,999,3664,0,-.14E-5,0
BEIDOU-2 G7,2016-037A,2026-06-13T20:36:52.070400,1.00265460,.0006814,1.7103,69.2918,3.7987,248.7484,0,U,41586,999,685,0,-.344E-5,0
ABS-2A (MONGOLSAT-1),2016-038A,2026-06-13T20:13:00.310080,1.00268031,.0001256,0.0256,342.2724,34.6383,263.2316,0,U,41588,999,3667,0,0,0
EUTELSAT 117 WEST B,2016-038B,2026-06-13T16:01:12.292032,1.00270980,.0000363,0.0229,164.5572,269.3905,311.3406,0,U,41589,999,3662,0,-.1E-7,0
BRISAT,2016-039A,2026-06-13T17:17:23.868096,1.00270724,.000188,0.0169,316.5658,122.5208,232.7935,0,U,41591,999,3657,0,-.186E-5,0
ECHOSTAR 18,2016-039B,2026-06-13T19:42:18.262080,1.00269263,.0001201,0.0175,356.1213,87.5863,52.6372,0,U,41592,999,3659,0,-.272E-5,0
MUOS-5,2016-041A,2026-06-13T16:04:19.493184,1.00271332,.0197296,2.2113,301.5884,260.8798,195.3587,0,U,41622,999,3705,0,-.109E-5,0
TIANTONG-1 1,2016-048A,2026-06-13T18:45:58.015008,1.00268044,.0005828,3.8426,43.3872,45.2329,196.3516,0,U,41725,999,3623,0,-.31E-5,0
JCSAT-16,2016-050A,2026-06-13T18:58:11.842176,1.00270535,.0000758,0.0169,334.0924,126.3749,230.1260,0,U,41729,999,3603,0,-.241E-5,0
USA 270,2016-052A,2026-06-11T08:15:58.536000,1.00285262,.0008524,4.1835,77.2658,338.7721,152.1702,0,U,41744,999,2807,0,.96E-6,0
USA 271,2016-052B,2026-06-11T06:58:56.063424,1.00260351,.0010788,4.1546,77.3359,156.7037,252.9173,0,U,41745,999,2786,0,-.344E-5,0
INTELSAT 36 (IS-36),2016-053A,2026-06-13T20:05:04.377408,1.00271214,.0001917,0.0113,357.4330,330.6184,303.8577,0,U,41747,999,3592,0,-.14E-6,0
INSAT-3DR,2016-054A,2026-06-13T20:13:00.329088,1.00270821,.001062,0.0975,86.8423,187.1166,5.4214,0,U,41752,999,3578,0,-.66E-6,0
GSAT-18,2016-060A,2026-06-13T20:13:00.349824,1.00270759,.0005457,0.0535,103.8943,328.2334,207.2581,0,U,41793,999,3549,0,-.66E-6,0
SKY MUSTER 2 (NBN1B),2016-060B,2026-06-13T18:58:26.817024,1.00270260,.00013,0.0172,329.1034,108.0339,254.3815,0,U,41794,999,3548,0,-.234E-5,0
HIMAWARI-9,2016-064A,2026-06-13T20:39:58.055904,1.00270182,.0000809,0.0479,148.4555,350.4524,214.0275,0,U,41836,999,3517,0,-.265E-5,0
SHIJIAN-17 (SJ-17),2016-065A,2026-06-13T13:46:10.151904,0.99853753,.0001725,5.7434,72.6472,28.9634,248.0339,0,U,41838,999,3516,0,.55E-6,0
GOES 16,2016-071A,2026-06-13T16:04:41.957184,1.00270040,.0000211,0.3318,85.5379,287.0700,25.8595,0,U,41866,999,3506,0,-.8E-6,0
TIANLIAN 1-04,2016-072A,2026-06-13T19:07:33.444768,1.00270838,.004218,0.8593,82.9411,89.7476,193.1002,0,U,41869,999,3526,0,.4E-6,0
WGS F8 (USA 272),2016-075A,2026-06-13T15:34:37.341120,1.00267042,.0000138,0.0404,46.3222,306.5669,292.5424,0,U,41879,999,3478,0,0,0
FENGYUN 4A,2016-077A,2026-06-13T20:35:06.023040,1.00270404,.0008669,2.3129,80.3235,152.7717,101.6282,0,U,41882,999,3489,0,-.348E-5,0
ECHOSTAR 19,2016-079A,2026-06-13T16:06:49.252896,1.00269725,.0001128,0.0127,28.3734,46.0488,332.1638,0,U,41893,999,3466,0,-.127E-5,0
JCSAT-110A (JCSAT-15),2016-082A,2026-06-13T18:07:31.230048,1.00272042,.0000522,0.0172,350.5270,142.0158,151.4726,0,U,41903,999,3472,0,-.34E-5,0
STAR ONE D1,2016-082B,2026-06-13T19:35:48.884064,1.00271788,.0002288,0.0145,40.6096,53.6638,17.8131,0,U,41904,999,3474,0,-.201E-5,0
TJS-2,2017-001A,2026-06-13T20:03:28.984032,1.00272913,.0000501,0.8246,85.3713,45.8525,138.3606,0,U,41911,999,3468,0,.3E-7,0
SBIRS GEO-4 (USA 273),2017-004A,2026-06-13T20:05:49.626816,1.00271527,.000189,2.2366,43.1855,32.4918,148.8269,0,U,41937,999,3456,0,.132E-5,0
HISPASAT 36W-1,2017-006A,2026-06-13T16:24:17.576928,1.00271132,.0000959,0.0081,289.6717,157.3478,25.0602,0,U,41942,999,3421,0,-.234E-5,0
TELKOM 3S,2017-007A,2026-06-13T21:05:25.649376,1.00272448,.0002064,0.0165,25.0684,51.9131,259.5672,0,U,41944,999,3410,0,-.353E-5,0
INTELSAT 32E (IS-32E),2017-007B,2026-06-13T18:04:49.319904,1.00271604,.0000892,0.0007,354.3537,319.2360,176.5049,0,U,41945,999,3419,0,-.258E-5,0
ECHOSTAR 23,2017-014A,2026-06-13T14:20:30.446304,1.00267798,.0002001,0.0152,322.0905,117.9339,287.1196,0,U,42070,999,3388,0,-.45E-6,0
WGS F9 (USA 275),2017-016A,2026-06-13T19:56:24.410112,1.00271281,.0000289,0.0171,318.5224,327.4039,263.3112,0,U,42075,999,3386,0,-.86E-6,0
SES-10,2017-017A,2026-06-13T19:40:48.406080,1.00270648,.0002567,0.0206,31.5713,58.4262,40.4419,0,U,42432,999,3372,0,-.262E-5,0
CHINASAT 16 (SJ-13),2017-018A,2026-06-13T19:10:07.707648,1.00270352,.0004135,0.0979,91.8924,136.9021,71.3905,0,U,42662,999,3371,0,-.342E-5,0
KOREASAT 7,2017-023A,2026-06-13T21:02:14.499744,1.00272328,.0000776,0.0239,13.4487,66.8737,253.3175,0,U,42691,999,3333,0,-.352E-5,0
SGDC,2017-023B,2026-06-13T11:32:21.539040,1.00272339,.0002487,0.0426,75.9524,15.6045,268.4782,0,U,42692,999,3336,0,-.238E-5,0
GSAT-9,2017-024A,2026-06-13T21:00:25.137216,1.00265238,.0002575,0.0346,61.0368,25.8251,227.8174,0,U,42695,999,3326,0,0,0
INMARSAT 5-F4,2017-025A,2026-06-13T20:42:48.293280,1.00266865,.0000467,0.0189,18.4862,338.4007,272.4657,0,U,42698,999,3324,0,.86E-6,0
SES-15,2017-026A,2026-06-13T17:40:21.664704,1.00267372,.0000347,0.0203,332.3233,57.9056,7.7445,0,U,42709,999,739,0,.71E-6,0
QZS-2 (MICHIBIKI-2),2017-028A,2026-06-09T12:56:43.810944,1.00285994,.07605811,39.4388,243.2674,269.1776,81.0235,0,U,42738,999,754,0,-.147E-5,0
VIASAT-2,2017-029A,2026-06-13T19:39:55.988928,1.00270759,.000014,0.0174,298.3446,35.8451,153.0322,0,U,42740,999,3317,0,-.255E-5,0
EUTELSAT 172B,2017-029B,2026-06-13T19:06:11.077056,1.00271559,.0000162,0.0139,84.5316,169.1241,107.0204,0,U,42741,999,3370,0,.5E-7,0
GSAT-19,2017-031A,2026-06-13T20:26:25.121760,1.00273353,.0007131,0.0469,265.9244,160.1225,190.5773,0,U,42747,999,3311,0,.135E-5,0
ECHOSTAR 21,2017-032A,2026-06-13T20:02:42.428256,1.00272201,.0002044,1.7713,355.4905,94.7412,122.8560,0,U,42749,999,3306,0,.75E-6,0
BULGARIASAT-1,2017-038A,2026-06-13T20:00:12.665952,1.00268745,.0003276,0.0130,335.9435,118.6899,109.4639,0,U,42801,999,3281,0,.21E-6,0
HELLAS-SAT 3,2017-040A,2026-06-13T19:20:38.571072,1.00269448,.0004762,0.0419,35.4747,16.5391,179.2530,0,U,42814,999,3277,0,.163E-5,0
GSAT-17,2017-040B,2026-06-13T20:36:49.149216,1.00270873,.000215,0.0168,311.9041,356.8194,356.1487,0,U,42815,999,3275,0,-.248E-5,0
INTELSAT 35E (IS-35E),2017-041A,2026-06-13T19:50:02.521248,1.00268539,.0001527,0.0260,2.9363,77.2602,84.9604,0,U,42818,999,3278,0,0,0
COSMOS 2520,2017-046A,2026-06-13T11:39:17.667360,1.00272902,.00010579,0.0477,86.2734,51.5599,343.7966,0,U,42907,999,3236,0,.148E-5,0
TDRS 13,2017-047A,2026-06-13T19:56:39.384960,1.00271412,.0014427,3.4508,2.6482,106.2540,80.9655,0,U,42915,999,3231,0,-.92E-6,0
QZS-3 (MICHIBIKI-3),2017-048A,2026-06-13T20:28:38.551872,1.00264590,.0002432,0.0248,165.8698,285.6679,244.7390,0,U,42917,999,3222,0,0,0
AMAZONAS 5,2017-053A,2026-06-13T12:51:49.256928,1.00270603,.0002191,0.0341,321.6774,65.3656,6.7678,0,U,42934,999,3200,0,-.271E-5,0
ASIASAT 9,2017-057A,2026-06-13T20:28:38.552736,1.00263846,.0002499,0.0410,45.6399,28.1238,257.7082,0,U,42942,999,3182,0,0,0
INTELSAT 37E (IS-37E),2017-059A,2026-06-13T19:54:39.578400,1.00272640,.0002344,0.0184,57.4518,43.3925,81.9719,0,U,42950,999,3203,0,-.13E-5,0
BSAT-4A,2017-059B,2026-06-13T20:45:45.307872,1.00269811,.0003897,0.0424,24.8769,42.2015,256.3629,0,U,42951,999,3176,0,-.34E-5,0
QZS-4 (MICHIBIKI-4),2017-062A,2026-06-13T08:38:10.353984,1.00251407,.07452562,40.1102,343.5314,271.6868,273.2941,0,U,42965,999,3176,0,-.329E-5,0
SES-11 (ECHOSTAR 105),2017-063A,2026-06-13T16:04:34.468032,1.00270701,.0002742,0.0216,319.8176,108.1557,330.2115,0,U,42967,999,3168,0,-.78E-6,0
KOREASAT 5A,2017-067A,2026-06-13T20:59:03.808896,1.00272315,.0000575,0.0114,347.8962,101.4627,240.7393,0,U,42984,999,3149,0,-.348E-5,0
ALCOMSAT 1,2017-078A,2026-06-13T16:27:24.778080,1.00271259,.000212,0.0476,77.2749,0.4590,46.3322,0,U,43039,999,3126,0,-.175E-5,0
